{"type": "FeatureCollection", "name": "fiche_villages_official_geom", "features": [{"type": "Feature", "properties": {"id": "kebele_01", "name": "Fitche Town", "parent": "Fitche Woreda (Efratana Gidim)", "sourceName": "Mulo", "sourceID": "50319843B92219144914111", "sourceType": "geoBoundaries ETH ADM3", "matchDistance": 0.081928}, "geometry": {"type": "Polygon", "coordinates": [[[38.60572988885971, 9.47611558999026], [38.60976993398746, 9.463776657989532], [38.6007396092677, 9.446968185213615], [38.57803892472876, 9.431989620015763], [38.56367845940385, 9.416781028150483], [38.55557810436976, 9.387553648697608], [38.55094784965767, 9.361765941690313], [38.550717818235206, 9.35624643595594], [38.5497977039585, 9.336908147553586], [38.534757132204376, 9.302831227791302], [38.52388675672148, 9.284402904312646], [38.515556439769995, 9.26551460952895], [38.51714640397736, 9.248986062419128], [38.51765639325723, 9.243656527422225], [38.5287865835846, 9.2188086750367], [38.55286718783996, 9.210099336934437], [38.57347769874185, 9.199080210929191], [38.59616823695474, 9.18345148818716], [38.62417895129425, 9.17359222864622], [38.65102968583528, 9.175691925283529], [38.68564430899376, 9.176733320647909], [38.69686200976628, 9.204321650945086], [38.71100994373898, 9.234185701417138], [38.71101003320834, 9.253047249103242], [38.71258212937417, 9.27819597171706], [38.71729819574145, 9.30648827060341], [38.71258236975717, 9.328493432105441], [38.70629458176164, 9.353642192396212], [38.70157879308671, 9.383506332462389], [38.698434968150345, 9.410226873983037], [38.68743124158857, 9.433803861831292], [38.67328355389125, 9.455809068745417], [38.67328361466316, 9.46838343499621], [38.66545168791921, 9.496281854937504], [38.643830990971956, 9.491174078713305], [38.63641077390253, 9.488644335843794], [38.60572988885971, 9.47611558999026]]]}}, {"type": "Feature", "properties": {"id": "kebele_02", "name": "Goro", "parent": "Fitche Woreda (Efratana Gidim)", "sourceName": "Sululta", "sourceID": "50319843B56110460273496", "sourceType": "geoBoundaries ETH ADM3", "matchDistance": 0.105727}, "geometry": {"type": "Polygon", "coordinates": [[[38.843410401101096, 9.079650669591013], [38.85390477301054, 9.09612802124536], [38.86227505295262, 9.108456893573905], [38.86713522465324, 9.115826213407747], [38.87407546080399, 9.126415246308612], [38.877380592727626, 9.136459340813856], [38.87755567991846, 9.154012784343774], [38.875485724224866, 9.174031022486645], [38.87433579926233, 9.197258973197258], [38.87665597516481, 9.22118684282859], [38.88522631614452, 9.244184768195069], [38.89402665622325, 9.265812808719843], [38.90584706475528, 9.28398114397132], [38.92088752382053, 9.296179997829292], [38.940568078845494, 9.301239451101676], [38.94543827000288, 9.31273841019784], [38.96326884665584, 9.332976535007822], [38.98596957460382, 9.357584245479265], [38.98575965171155, 9.375062699583156], [38.986239784510936, 9.39875060034871], [38.99831027348834, 9.432097588729224], [38.992790250586026, 9.457625358584668], [38.97868992899955, 9.46939438902133], [38.974352718337975, 9.473017962668402], [38.93816884226205, 9.469834548677222], [38.90806802187971, 9.468684791829004], [38.88120729351838, 9.467535026815607], [38.85109643083977, 9.457646041918812], [38.816125442258496, 9.448677004114236], [38.78672466168645, 9.450966945195637], [38.76704419676523, 9.464995802387488], [38.745283681419835, 9.480404543822734], [38.734573420714845, 9.484964192909256], [38.72096307513567, 9.490753742349506], [38.690852306550305, 9.499023158779265], [38.67444185266138, 9.497253396449766], [38.66545168791921, 9.496281854937504], [38.67328361466316, 9.46838343499621], [38.67328355389125, 9.455809068745417], [38.68743124158857, 9.433803861831292], [38.698434968150345, 9.410226873983037], [38.70157879308671, 9.383506332462389], [38.70629458176164, 9.353642192396212], [38.71258236975717, 9.328493432105441], [38.71729819574145, 9.30648827060341], [38.71258212937417, 9.27819597171706], [38.71101003320834, 9.253047249103242], [38.71100994373898, 9.234185701417138], [38.69686200976628, 9.204321650945086], [38.68564430899376, 9.176733320647909], [38.69398084293382, 9.1759217051053], [38.70981126580891, 9.174371764864349], [38.71004119146282, 9.157343269657101], [38.69385068671907, 9.142834628836654], [38.68043027512221, 9.132235628056032], [38.67442006089986, 9.121876569155557], [38.67685008208327, 9.112377400884494], [38.67916511569913, 9.105537993545664], [38.69538950587192, 9.078769681321573], [38.70151929100731, 9.08154945623621], [38.70758746361242, 9.082869136192336], [38.71748075573636, 9.088787084151516], [38.7279395994275, 9.086750811806148], [38.73885858512234, 9.087899454168003], [38.751695129533374, 9.09156530057878], [38.7601290705492, 9.096930968417404], [38.76605333732771, 9.099186159616307], [38.77208608430874, 9.09923054593277], [38.77902621981438, 9.094687680239014], [38.79215143294071, 9.078719116372236], [38.800803348861216, 9.0796015714589], [38.805965560091906, 9.083366350729836], [38.814216503014414, 9.08105877151794], [38.82557660174858, 9.076926370760567], [38.843410401101096, 9.079650669591013]]]}}, {"type": "Feature", "properties": {"id": "kebele_03", "name": "Gulit", "parent": "Fitche Woreda (Efratana Gidim)", "sourceName": "Gulele", "sourceID": "50319843B73760982271565", "sourceType": "geoBoundaries ETH ADM3", "matchDistance": 0.204812}, "geometry": {"type": "Polygon", "coordinates": [[[38.79215143294071, 9.078719116372236], [38.77902621981438, 9.094687680239014], [38.77208608430874, 9.09923054593277], [38.76605333732771, 9.099186159616307], [38.7601290705492, 9.096930968417404], [38.751695129533374, 9.09156530057878], [38.73885858512234, 9.087899454168003], [38.7279395994275, 9.086750811806148], [38.71748075573636, 9.088787084151516], [38.70758746361242, 9.082869136192336], [38.710068742433485, 9.074180418897166], [38.71165192685753, 9.06676701373192], [38.71206745605268, 9.060553133720099], [38.71681506579493, 9.054290621370898], [38.72488400602207, 9.049949029490513], [38.72917065534885, 9.046934352258312], [38.735788872717386, 9.048583257400963], [38.740425605657876, 9.053460598042841], [38.7485567529105, 9.053041890384721], [38.751102542880645, 9.04698992376464], [38.76066000690436, 9.044113873730069], [38.767901002705536, 9.05138619471786], [38.767511013517776, 9.058874173908531], [38.76523443446434, 9.064483105471842], [38.76580950949193, 9.06998596362013], [38.77134995159913, 9.07482566899386], [38.778653101385764, 9.078339500394229], [38.783126244121426, 9.082178616554545], [38.79215143294071, 9.078719116372236]]]}}, {"type": "Feature", "properties": {"id": "kebele_04", "name": "Chacha", "parent": "Fitche Woreda (Efratana Gidim)", "sourceName": "Addis Ketema", "sourceID": "50319843B42062255680600", "sourceType": "geoBoundaries ETH ADM3", "matchDistance": 0.183331}, "geometry": {"type": "Polygon", "coordinates": [[[38.74464185331163, 9.031622243634638], [38.739668012854466, 9.037201834598532], [38.735901030687714, 9.043848928382108], [38.735788872717386, 9.048583257400963], [38.72917065534885, 9.046934352258312], [38.72488400602207, 9.049949029490513], [38.71681506579493, 9.054290621370898], [38.717330471225104, 9.046564357944359], [38.71695619529698, 9.041441801528592], [38.71511932958079, 9.035288111941597], [38.71713631212207, 9.027561697248805], [38.717223335202, 9.021801820377679], [38.725608939900496, 9.021522868885965], [38.733372783335646, 9.024091912627775], [38.74039612505328, 9.027468198226279], [38.74464185331163, 9.031622243634638]]]}}, {"type": "Feature", "properties": {"id": "kebele_05", "name": "Dembela", "parent": "Fitche Woreda (Efratana Gidim)", "sourceName": "Walmara", "sourceID": "50319843B4420270880172", "sourceType": "geoBoundaries ETH ADM3", "matchDistance": 0.121337}, "geometry": {"type": "Polygon", "coordinates": [[[38.43630397603485, 9.196921031961384], [38.43922393281607, 9.170803325640218], [38.437623791713506, 9.14892526369964], [38.43833371473359, 9.128907028106914], [38.45339406092516, 9.115348160765274], [38.46706435243561, 9.098799556045254], [38.47265436646334, 9.067272315412998], [38.46411402114015, 9.0433144762948], [38.459743812694235, 9.022586323262214], [38.451203483353005, 9.00185819692076], [38.432482884422164, 8.981560072556926], [38.42486263400281, 8.97142100053586], [38.40754205336706, 8.946523272915684], [38.39739166527167, 8.921175559873136], [38.40204173577774, 8.907826716396034], [38.41386200430121, 8.897267599184879], [38.42242220487402, 8.889918212714397], [38.43378245369817, 8.877519257301321], [38.44280269551609, 8.877069257249891], [38.46037321595596, 8.886548341193299], [38.47311348756792, 8.869999750375559], [38.48862388208434, 8.864510162588479], [38.508264465941934, 8.876978980035584], [38.533915269377744, 8.9014267014459], [38.55354591896177, 8.928164249454412], [38.57064647204457, 8.948672362863906], [38.59167715414933, 8.975399898116644], [38.603687556504724, 8.99244834214728], [38.62033808235634, 9.007896901549092], [38.643773743338684, 9.015176151509744], [38.65277845045784, 9.011328291620767], [38.66091419504673, 9.010379911741493], [38.66787310803295, 9.01107162350987], [38.667373418720565, 9.017775861840864], [38.6680597711008, 9.027274890243447], [38.67291840477642, 9.034187144446774], [38.673434712935745, 9.039713948981857], [38.67760073225299, 9.044207756150806], [38.68437829936516, 9.05107799273847], [38.68453665575333, 9.060581161331347], [38.6845308015223, 9.067355309167247], [38.686245300391924, 9.07406538028594], [38.69538950587192, 9.078769681321573], [38.67916511569913, 9.105537993545664], [38.67685008208327, 9.112377400884494], [38.67442006089986, 9.121876569155557], [38.68043027512221, 9.132235628056032], [38.69385068671907, 9.142834628836654], [38.71004119146282, 9.157343269657101], [38.70981126580891, 9.174371764864349], [38.69398084293382, 9.1759217051053], [38.68564430899376, 9.176733320647909], [38.65102968583528, 9.175691925283529], [38.62417895129425, 9.17359222864622], [38.59616823695474, 9.18345148818716], [38.57347769874185, 9.199080210929191], [38.55286718783996, 9.210099336934437], [38.5287865835846, 9.2188086750367], [38.51765639325723, 9.243656527422225], [38.51714640397736, 9.248986062419128], [38.492185682724454, 9.238557098534146], [38.485475490163225, 9.236247332257815], [38.474135143793426, 9.227708142130284], [38.468824937073556, 9.214119365131324], [38.460494646221456, 9.200530602691359], [38.4452142198707, 9.197970894676903], [38.43630397603485, 9.196921031961384]]]}}, {"type": "Feature", "properties": {"id": "kebele_06", "name": "Kundi", "parent": "Fitche Woreda (Efratana Gidim)", "sourceName": "Kolfe - Keran", "sourceID": "50319843B27060270513775", "sourceType": "geoBoundaries ETH ADM3", "matchDistance": 0.215624}, "geometry": {"type": "Polygon", "coordinates": [[[38.7158847533458, 8.99398969389388], [38.712629190487505, 8.998099267033039], [38.71306250949341, 9.004942619067341], [38.71036971111094, 9.009581207033985], [38.71124404063714, 9.01739060419201], [38.717223335202, 9.021801820377679], [38.71713631212207, 9.027561697248805], [38.71511932958079, 9.035288111941597], [38.71695619529698, 9.041441801528592], [38.717330471225104, 9.046564357944359], [38.71681506579493, 9.054290621370898], [38.71206745605268, 9.060553133720099], [38.71165192685753, 9.06676701373192], [38.710068742433485, 9.074180418897166], [38.70758746361242, 9.082869136192336], [38.70151929100731, 9.08154945623621], [38.69538950587192, 9.078769681321573], [38.686245300391924, 9.07406538028594], [38.6845308015223, 9.067355309167247], [38.68453665575333, 9.060581161331347], [38.68437829936516, 9.05107799273847], [38.67760073225299, 9.044207756150806], [38.673434712935745, 9.039713948981857], [38.67291840477642, 9.034187144446774], [38.6680597711008, 9.027274890243447], [38.667373418720565, 9.017775861840864], [38.66787310803295, 9.01107162350987], [38.66091419504673, 9.010379911741493], [38.65277845045784, 9.011328291620767], [38.65188797305047, 9.003537807534205], [38.65862837435628, 8.995863644151203], [38.660222988485344, 8.986448513704426], [38.655481073360086, 8.977983432180483], [38.64934618001578, 8.97704252077513], [38.64024143946276, 8.975082907417317], [38.64365461644078, 8.966901207779802], [38.654196760730684, 8.963948045045182], [38.66624520681714, 8.962129466284656], [38.67706398057248, 8.958653300039376], [38.681798190256586, 8.950713813654625], [38.689411903609226, 8.957343532446027], [38.69299660840392, 8.965214816881593], [38.69971352677904, 8.968518604444096], [38.70486724031978, 8.971940233935877], [38.71322204187606, 8.974614947435606], [38.71446296910394, 8.98312773921746], [38.715766847608265, 8.98967234530424], [38.7158847533458, 8.99398969389388]]]}}, {"type": "Feature", "properties": {"id": "kebele_07", "name": "Jarte", "parent": "Fitche Woreda (Efratana Gidim)", "sourceName": "Yeka", "sourceID": "50319843B65872379705117", "sourceType": "geoBoundaries ETH ADM3", "matchDistance": 0.223887}, "geometry": {"type": "Polygon", "coordinates": [[[38.89750163914176, 9.031539538010115], [38.8941855859692, 9.038267956739693], [38.88716544146532, 9.047857139367759], [38.883785375549735, 9.053145022276357], [38.883817914864274, 9.061515947831388], [38.88279875790379, 9.069596900997812], [38.87995195953242, 9.076567855126287], [38.877162327903065, 9.082621183833904], [38.869061244275855, 9.085945248042162], [38.85759273040975, 9.084559453014263], [38.8503684735082, 9.079206369993868], [38.843410401101096, 9.079650669591013], [38.82557660174858, 9.076926370760567], [38.814216503014414, 9.08105877151794], [38.805965560091906, 9.083366350729836], [38.800803348861216, 9.0796015714589], [38.79215143294071, 9.078719116372236], [38.783126244121426, 9.082178616554545], [38.778653101385764, 9.078339500394229], [38.77134995159913, 9.07482566899386], [38.76580950949193, 9.06998596362013], [38.76523443446434, 9.064483105471842], [38.767511013517776, 9.058874173908531], [38.767901002705536, 9.05138619471786], [38.76066000690436, 9.044113873730069], [38.77239555381607, 9.039165052599714], [38.77864055636733, 9.035626917537002], [38.776193167076535, 9.028551124527867], [38.770170940733045, 9.02639485737973], [38.76629182072968, 9.023091592922292], [38.77207650791087, 9.019796942736274], [38.777579768551824, 9.016781220920825], [38.78463362020278, 9.015918656325036], [38.793234032207884, 9.017862275627097], [38.799534046956275, 9.019735964977322], [38.8088772697242, 9.020844716017871], [38.81975934457978, 9.01974457756372], [38.83050959836617, 9.022409270807572], [38.8410882274214, 9.02192232408729], [38.85171777539769, 9.021365448779719], [38.85853550232588, 9.021008282662926], [38.87797038575638, 9.022057492179412], [38.8853586565866, 9.02241604454058], [38.890620778497066, 9.023252909236552], [38.89750163914176, 9.031539538010115]]]}}, {"type": "Feature", "properties": {"id": "kebele_08", "name": "Mekane Selam", "parent": "Fitche Woreda (Efratana Gidim)", "sourceName": "Adda Berga", "sourceID": "50319843B64709510095424", "sourceType": "geoBoundaries ETH ADM3", "matchDistance": 0.200412}, "geometry": {"type": "Polygon", "coordinates": [[[38.47824697084157, 9.589156218948252], [38.45079627997156, 9.60150526186235], [38.42112549516193, 9.606314976190255], [38.40064494036745, 9.606995013568508], [38.38774451514414, 9.59223638054687], [38.372224053476145, 9.583927182121242], [38.351823460345905, 9.576767908758018], [38.33235288535354, 9.567528820775308], [38.30848214419073, 9.54839061449332], [38.307111996537586, 9.524672715233663], [38.30829191026988, 9.499574921712732], [38.30692172252125, 9.468947628673456], [38.30695157030409, 9.435790550067061], [38.31000147981199, 9.39873380405491], [38.315821469941255, 9.363056919926459], [38.32466155675456, 9.329679828908358], [38.336511736747724, 9.299082469566263], [38.35484207284857, 9.264115470278266], [38.370852393900755, 9.239057610391818], [38.37826257172164, 9.23469796369597], [38.39493304931818, 9.23932747886342], [38.41183350410216, 9.239357395006756], [38.42065364950216, 9.218189225128897], [38.423213660198996, 9.205990293070595], [38.43630397603485, 9.196921031961384], [38.4452142198707, 9.197970894676903], [38.460494646221456, 9.200530602691359], [38.468824937073556, 9.214119365131324], [38.474135143793426, 9.227708142130284], [38.485475490163225, 9.236247332257815], [38.492185682724454, 9.238557098534146], [38.51714640397736, 9.248986062419128], [38.515556439769995, 9.26551460952895], [38.52388675672148, 9.284402904312646], [38.534757132204376, 9.302831227791302], [38.5497977039585, 9.336908147553586], [38.550717818235206, 9.35624643595594], [38.55094784965767, 9.361765941690313], [38.55557810436976, 9.387553648697608], [38.56367845940385, 9.416781028150483], [38.57803892472876, 9.431989620015763], [38.6007396092677, 9.446968185213615], [38.60976993398746, 9.463776657989532], [38.60572988885971, 9.47611558999026], [38.60351985488814, 9.482865006307803], [38.586379456167855, 9.495283990748188], [38.56853900987842, 9.504243285241062], [38.54999857268535, 9.51689225478761], [38.538648381090034, 9.542200070274424], [38.52968820403054, 9.554649017003175], [38.522418053844966, 9.564738162549554], [38.506427665170285, 9.575087328824099], [38.48603716536411, 9.585656491543565], [38.47824697084157, 9.589156218948252]]]}}, {"type": "Feature", "properties": {"id": "kebele_09", "name": "Shola Gebeya", "parent": "Fitche Woreda (Efratana Gidim)", "sourceName": "Arada", "sourceID": "50319843B23635742640489", "sourceType": "geoBoundaries ETH ADM3", "matchDistance": 0.21469}, "geometry": {"type": "Polygon", "coordinates": [[[38.754480949817605, 9.020015599242962], [38.75920273468359, 9.024358121095952], [38.76629182072968, 9.023091592922292], [38.770170940733045, 9.02639485737973], [38.776193167076535, 9.028551124527867], [38.77864055636733, 9.035626917537002], [38.77239555381607, 9.039165052599714], [38.76066000690436, 9.044113873730069], [38.751102542880645, 9.04698992376464], [38.7485567529105, 9.053041890384721], [38.740425605657876, 9.053460598042841], [38.735788872717386, 9.048583257400963], [38.735901030687714, 9.043848928382108], [38.739668012854466, 9.037201834598532], [38.74464185331163, 9.031622243634638], [38.74935475364163, 9.026419605940783], [38.754480949817605, 9.020015599242962]]]}}, {"type": "Feature", "properties": {"id": "kebele_10", "name": "Tula", "parent": "Fitche Woreda (Efratana Gidim)", "sourceName": "Lideta", "sourceID": "50319843B56746649263622", "sourceType": "geoBoundaries ETH ADM3", "matchDistance": 0.218265}, "geometry": {"type": "Polygon", "coordinates": [[[38.73862405213587, 8.997468436328479], [38.743759385862695, 9.01070360667867], [38.74965303436397, 9.015337027725957], [38.754480949817605, 9.020015599242962], [38.74935475364163, 9.026419605940783], [38.74464185331163, 9.031622243634638], [38.74039612505328, 9.027468198226279], [38.733372783335646, 9.024091912627775], [38.725608939900496, 9.021522868885965], [38.717223335202, 9.021801820377679], [38.71124404063714, 9.01739060419201], [38.71036971111094, 9.009581207033985], [38.71306250949341, 9.004942619067341], [38.712629190487505, 8.998099267033039], [38.7158847533458, 8.99398969389388], [38.72001948993397, 8.999614181114454], [38.72544443009931, 8.999541673136001], [38.7317571071114, 8.997638071610421], [38.73862405213587, 8.997468436328479]]]}}, {"type": "Feature", "properties": {"id": "kebele_11", "name": "Yegol", "parent": "Fitche Woreda (Efratana Gidim)", "sourceName": "Kirkos", "sourceID": "50319843B31296653580974", "sourceType": "geoBoundaries ETH ADM3", "matchDistance": 0.213612}, "geometry": {"type": "Polygon", "coordinates": [[[38.76503561537084, 8.981098439243784], [38.77080966021772, 8.985717468737112], [38.77548093915647, 8.991932292478287], [38.77425226508567, 9.00099462935596], [38.776629526552654, 9.00655541825152], [38.775642475175836, 9.012066471474201], [38.777579768551824, 9.016781220920825], [38.77207650791087, 9.019796942736274], [38.76629182072968, 9.023091592922292], [38.75920273468359, 9.024358121095952], [38.754480949817605, 9.020015599242962], [38.74965303436397, 9.015337027725957], [38.743759385862695, 9.01070360667867], [38.73862405213587, 8.997468436328479], [38.739687889716734, 8.991741602333075], [38.74499658479919, 8.987975878925878], [38.75015073307686, 8.985159915606955], [38.75888027068577, 8.981427804101134], [38.76503561537084, 8.981098439243784]]]}}, {"type": "Feature", "properties": {"id": "kebele_12", "name": "Dero", "parent": "Fitche Woreda (Efratana Gidim)", "sourceName": "Yaya Gulele", "sourceID": "50319843B17193056400511", "sourceType": "geoBoundaries ETH ADM3", "matchDistance": 0.308226}, "geometry": {"type": "Polygon", "coordinates": [[[38.52968820403054, 9.554649017003175], [38.538648381090034, 9.542200070274424], [38.54999857268535, 9.51689225478761], [38.56853900987842, 9.504243285241062], [38.586379456167855, 9.495283990748188], [38.60351985488814, 9.482865006307803], [38.60572988885971, 9.47611558999026], [38.63641077390253, 9.488644335843794], [38.643830990971956, 9.491174078713305], [38.66545168791921, 9.496281854937504], [38.67444185266138, 9.497253396449766], [38.690852306550305, 9.499023158779265], [38.72096307513567, 9.490753742349506], [38.734573420714845, 9.484964192909256], [38.74252380642316, 9.519751075166397], [38.74623394911752, 9.52964018850519], [38.75735431436899, 9.542988950007443], [38.76802470073407, 9.561397277004309], [38.76410868017702, 9.57878987730009], [38.75576098055244, 9.60084943805098], [38.75428379220808, 9.619313310876622], [38.75723843937597, 9.637038607126916], [38.755930475420335, 9.65665726375025], [38.73866433340686, 9.648819697138526], [38.71966381720703, 9.648819790019234], [38.69626323236105, 9.659178984999645], [38.6663724934312, 9.672517956804413], [38.653082143859855, 9.675317777461863], [38.626051438543406, 9.681017405179974], [38.61701119144725, 9.680327504459582], [38.61052103157705, 9.68515711262236], [38.59544049338641, 9.658459544048503], [38.57503978597329, 9.62784234261052], [38.562519356383135, 9.608264131887912], [38.54767881721933, 9.581796533245345], [38.53678841933434, 9.560608459198773], [38.52968820403054, 9.554649017003175]]]}}, {"type": "Feature", "properties": {"id": "kebele_13", "name": "Meraro", "parent": "Fitche Woreda (Efratana Gidim)", "sourceName": "Nefas Silk", "sourceID": "50319843B72698614466884", "sourceType": "geoBoundaries ETH ADM3", "matchDistance": 0.360307}, "geometry": {"type": "Polygon", "coordinates": [[[38.73862405213587, 8.997468436328479], [38.7317571071114, 8.997638071610421], [38.72544443009931, 8.999541673136001], [38.72001948993397, 8.999614181114454], [38.7158847533458, 8.99398969389388], [38.715766847608265, 8.98967234530424], [38.71446296910394, 8.98312773921746], [38.71322204187606, 8.974614947435606], [38.70486724031978, 8.971940233935877], [38.69971352677904, 8.968518604444096], [38.69299660840392, 8.965214816881593], [38.689411903609226, 8.957343532446027], [38.681798190256586, 8.950713813654625], [38.68147922505078, 8.942139809377881], [38.68873912492478, 8.940791864955612], [38.694681742054684, 8.942947448415582], [38.697665855853444, 8.93375834237103], [38.70280348362868, 8.926679513556165], [38.70926534515753, 8.921966605286359], [38.71997998003338, 8.920767245765276], [38.724175156033084, 8.915633668953207], [38.7280618098705, 8.911896448014684], [38.731910154893406, 8.90614388949664], [38.737354305487806, 8.902343826299425], [38.74442756768303, 8.903638703268063], [38.74660883103594, 8.91115435928075], [38.748420266794916, 8.917481814828218], [38.75047821124396, 8.92321481253845], [38.7546889211475, 8.928017344159347], [38.756303364076494, 8.933035708918043], [38.75785064462773, 8.939743866734013], [38.758970949301194, 8.945826572586936], [38.761076158849555, 8.952889805142634], [38.763399396898265, 8.959347698760626], [38.769192066783916, 8.960068463291675], [38.773612602801194, 8.9527565794181], [38.77589058013589, 8.960505265092058], [38.77022593167244, 8.96568324328343], [38.76941611924396, 8.97275735763471], [38.76475132301152, 8.976573638589795], [38.76503561537084, 8.981098439243784], [38.75888027068577, 8.981427804101134], [38.75015073307686, 8.985159915606955], [38.74499658479919, 8.987975878925878], [38.739687889716734, 8.991741602333075], [38.73862405213587, 8.997468436328479]]]}}, {"type": "Feature", "properties": {"id": "kebele_14", "name": "Kerer", "parent": "Fitche Woreda (Efratana Gidim)", "sourceName": "Ejere (Addis Alem)", "sourceID": "50319843B52716840500343", "sourceType": "geoBoundaries ETH ADM3", "matchDistance": 0.300288}, "geometry": {"type": "Polygon", "coordinates": [[[38.25552916432824, 9.219489860212876], [38.253199001961804, 9.197381820474698], [38.25452901439726, 9.191372340471437], [38.28156971496541, 9.184392840241077], [38.2594190586102, 9.173103936766081], [38.26417914994365, 9.163594751912509], [38.268979250140625, 9.157085307454333], [38.27135929197973, 9.152351712011725], [38.27646942281709, 9.1499958971918], [38.29664987295168, 9.129547607502692], [38.31682032571175, 9.107949422193949], [38.33537074021201, 9.088181087788373], [38.342800865708334, 9.070932575790586], [38.33566054271644, 9.042825091670839], [38.336390445319076, 9.016817385167705], [38.32276996612638, 8.99306954297939], [38.30498936911133, 8.967011922144305], [38.28095863067711, 8.947373762454934], [38.264078127771626, 8.936744771389998], [38.26934325464697, 8.932995078778216], [38.278438488914574, 8.92964533381472], [38.298598964616076, 8.914496587292629], [38.318069428235226, 8.900267753559813], [38.3435300878866, 8.892728312541086], [38.3650606229279, 8.883119062413192], [38.38521109632274, 8.867280379512867], [38.39888141301698, 8.854411450261948], [38.40792162299477, 8.847072060344415], [38.41705388146596, 8.849569801432864], [38.4246721210991, 8.85723609059078], [38.43378245369817, 8.877519257301321], [38.42242220487402, 8.889918212714397], [38.41386200430121, 8.897267599184879], [38.40204173577774, 8.907826716396034], [38.39739166527167, 8.921175559873136], [38.40754205336706, 8.946523272915684], [38.42486263400281, 8.97142100053586], [38.432482884422164, 8.981560072556926], [38.451203483353005, 9.00185819692076], [38.459743812694235, 9.022586323262214], [38.46411402114015, 9.0433144762948], [38.47265436646334, 9.067272315412998], [38.46706435243561, 9.098799556045254], [38.45339406092516, 9.115348160765274], [38.43833371473359, 9.128907028106914], [38.437623791713506, 9.14892526369964], [38.43922393281607, 9.170803325640218], [38.43630397603485, 9.196921031961384], [38.423213660198996, 9.205990293070595], [38.42065364950216, 9.218189225128897], [38.41183350410216, 9.239357395006756], [38.39493304931818, 9.23932747886342], [38.37826257172164, 9.23469796369597], [38.370852393900755, 9.239057610391818], [38.362522112500834, 9.22775864856986], [38.34562164520263, 9.224968967557693], [38.33102127188555, 9.230228567389563], [38.31991094119602, 9.223999171394032], [38.30972064984054, 9.221439446094037], [38.289340122858334, 9.226929051614654], [38.271049606828385, 9.222519524511897], [38.25552916432824, 9.219489860212876]]]}}, {"type": "Feature", "properties": {"id": "kebele_15", "name": "Gizach", "parent": "Fitche Woreda (Efratana Gidim)", "sourceName": "Bereh", "sourceID": "50319843B79089966699554", "sourceType": "geoBoundaries ETH ADM3", "matchDistance": 0.299759}, "geometry": {"type": "Polygon", "coordinates": [[[38.9036265129207, 8.96345923185526], [38.919465991302786, 8.980262980346847], [38.9256862008441, 8.989087167317223], [38.937416477591064, 8.981077822509988], [38.95565193887345, 8.976498145932469], [38.9686272523435, 8.968448796465935], [38.98804770869312, 8.955349869638836], [39.00028796839302, 8.940861096221447], [39.00652805728798, 8.923392613922596], [39.017388295027196, 8.91304348550375], [39.02557850831319, 8.911566910690537], [39.032099528380414, 8.911396975288508], [39.039348969379155, 8.930761812449237], [39.04744934092023, 8.964798760947769], [39.06040981970312, 8.992636228086296], [39.08100046996566, 9.013794255080924], [39.10181114507394, 9.038861939564447], [39.11455161206144, 9.06506955020393], [39.12867210302107, 9.089437323080436], [39.14718268911749, 9.108755525500177], [39.15399078128684, 9.11197537840522], [39.13889749291085, 9.127752984781026], [39.11700278161666, 9.148863508118856], [39.10214568069456, 9.168410263509818], [39.095108137913044, 9.184047645221064], [39.07946912915419, 9.213758680497369], [39.04193542268462, 9.2677077126434], [39.00526334363348, 9.314643025053712], [39.0014297622081, 9.311128288652554], [38.984069235055124, 9.297329590845333], [38.96230861820956, 9.291120245982482], [38.940568078845494, 9.301239451101676], [38.92088752382053, 9.296179997829292], [38.90584706475528, 9.28398114397132], [38.89402665622325, 9.265812808719843], [38.88522631614452, 9.244184768195069], [38.87665597516481, 9.22118684282859], [38.87433579926233, 9.197258973197258], [38.875485724224866, 9.174031022486645], [38.87755567991846, 9.154012784343774], [38.877380592727626, 9.136459340813856], [38.87407546080399, 9.126415246308612], [38.86713522465324, 9.115826213407747], [38.86227505295262, 9.108456893573905], [38.85390477301054, 9.09612802124536], [38.843410401101096, 9.079650669591013], [38.8503684735082, 9.079206369993868], [38.85759273040975, 9.084559453014263], [38.869061244275855, 9.085945248042162], [38.877162327903065, 9.082621183833904], [38.87995195953242, 9.076567855126287], [38.88279875790379, 9.069596900997812], [38.883817914864274, 9.061515947831388], [38.883785375549735, 9.053145022276357], [38.88716544146532, 9.047857139367759], [38.8941855859692, 9.038267956739693], [38.89750163914176, 9.031539538010115], [38.90200147942797, 9.0206266488721], [38.90584293777256, 9.010543184355138], [38.90689573890325, 8.998576415236316], [38.90518066677265, 8.993201900983607], [38.90574231105425, 8.985160941930893], [38.90708564811199, 8.978464860684422], [38.904935557453776, 8.97058890124404], [38.9036265129207, 8.96345923185526]]]}}, {"type": "Feature", "properties": {"id": "kebele_16", "name": "Addis Alem", "parent": "Fitche Woreda (Efratana Gidim)", "sourceName": "Bole", "sourceID": "50319843B25705088227224", "sourceType": "geoBoundaries ETH ADM3", "matchDistance": 0.388232}, "geometry": {"type": "Polygon", "coordinates": [[[38.773612602801194, 8.9527565794181], [38.7719666376766, 8.946247855265423], [38.77477784838886, 8.94134068491409], [38.78089801030523, 8.93695739983838], [38.78661267316653, 8.939827501247615], [38.79486998341315, 8.943342352479801], [38.801573806285745, 8.947005874459883], [38.80972274122383, 8.945139337453085], [38.817283457263215, 8.942633814487815], [38.821376045000946, 8.938919696030323], [38.82912782897168, 8.940519437529165], [38.836808794764565, 8.94322294680611], [38.841900176349164, 8.94212992511891], [38.85022338590943, 8.939325394636535], [38.856395976093495, 8.939342586865076], [38.8622592890054, 8.943726477872378], [38.870334488833116, 8.940669213902277], [38.88292230921139, 8.937246956419205], [38.892265051658434, 8.935382079384677], [38.89760087004666, 8.938076693058417], [38.90194069117593, 8.947190032161283], [38.8970764559519, 8.955885646522571], [38.9036265129207, 8.96345923185526], [38.904935557453776, 8.97058890124404], [38.90708564811199, 8.978464860684422], [38.90574231105425, 8.985160941930893], [38.90518066677265, 8.993201900983607], [38.90689573890325, 8.998576415236316], [38.90584293777256, 9.010543184355138], [38.90200147942797, 9.0206266488721], [38.89750163914176, 9.031539538010115], [38.890620778497066, 9.023252909236552], [38.8853586565866, 9.02241604454058], [38.87797038575638, 9.022057492179412], [38.85853550232588, 9.021008282662926], [38.85171777539769, 9.021365448779719], [38.8410882274214, 9.02192232408729], [38.83050959836617, 9.022409270807572], [38.81975934457978, 9.01974457756372], [38.8088772697242, 9.020844716017871], [38.799534046956275, 9.019735964977322], [38.793234032207884, 9.017862275627097], [38.78463362020278, 9.015918656325036], [38.777579768551824, 9.016781220920825], [38.775642475175836, 9.012066471474201], [38.776629526552654, 9.00655541825152], [38.77425226508567, 9.00099462935596], [38.77548093915647, 8.991932292478287], [38.77080966021772, 8.985717468737112], [38.76503561537084, 8.981098439243784], [38.76475132301152, 8.976573638589795], [38.76941611924396, 8.97275735763471], [38.77022593167244, 8.96568324328343], [38.77589058013589, 8.960505265092058], [38.773612602801194, 8.9527565794181]]]}}, {"type": "Feature", "properties": {"id": "kebele_17", "name": "Fitche Gelila", "parent": "Fitche Woreda (Efratana Gidim)", "sourceName": "Akaki - Kalit", "sourceID": "50319843B65745637286703", "sourceType": "geoBoundaries ETH ADM3", "matchDistance": 0.390321}, "geometry": {"type": "Polygon", "coordinates": [[[38.74442756768303, 8.903638703268063], [38.74531514606688, 8.893165363215648], [38.743997496851655, 8.881467526148533], [38.748132861831444, 8.878214367183858], [38.746038786893834, 8.870546496769744], [38.74635574386022, 8.864480254563214], [38.75495541882068, 8.859650284291199], [38.757303358310864, 8.854298056607622], [38.7623971968011, 8.854671957198624], [38.77383049108097, 8.858524435925826], [38.77830410891654, 8.853482431873719], [38.779222041622546, 8.842867183079376], [38.781433723361374, 8.836978486428494], [38.78749252819246, 8.836339842555017], [38.79286393419575, 8.836835538689007], [38.79842314702039, 8.834544389375042], [38.806335762592084, 8.838303092436327], [38.81338678067379, 8.841073765080397], [38.81832964107249, 8.84035162973972], [38.82523283116807, 8.842390619214152], [38.82467192280501, 8.847506460414717], [38.824747524516035, 8.853815667457576], [38.827117305229216, 8.85867492223253], [38.82788633399777, 8.8643144248626], [38.83024972952245, 8.869838091514254], [38.82777595641037, 8.874721369922622], [38.82684137936187, 8.881242193381725], [38.833823841029464, 8.88396669317517], [38.84152821062248, 8.880906555448634], [38.847917829296684, 8.88107498371871], [38.8538226561884, 8.88283844738752], [38.85922863254905, 8.884692877636033], [38.86464976018118, 8.883905249853147], [38.86955796585573, 8.87409113995835], [38.87067222960756, 8.881829708463126], [38.874253046650374, 8.889346355836835], [38.87833274856181, 8.896840678298226], [38.87415039865871, 8.906147602690927], [38.87802474896424, 8.91357881200367], [38.880288305236114, 8.919365672780966], [38.87433328096113, 8.924805665567165], [38.86891115692036, 8.928669503284446], [38.861674578967865, 8.93322824712767], [38.856395976093495, 8.939342586865076], [38.85022338590943, 8.939325394636535], [38.841900176349164, 8.94212992511891], [38.836808794764565, 8.94322294680611], [38.82912782897168, 8.940519437529165], [38.821376045000946, 8.938919696030323], [38.817283457263215, 8.942633814487815], [38.80972274122383, 8.945139337453085], [38.801573806285745, 8.947005874459883], [38.79486998341315, 8.943342352479801], [38.78661267316653, 8.939827501247615], [38.78089801030523, 8.93695739983838], [38.77477784838886, 8.94134068491409], [38.7719666376766, 8.946247855265423], [38.773612602801194, 8.9527565794181], [38.769192066783916, 8.960068463291675], [38.763399396898265, 8.959347698760626], [38.761076158849555, 8.952889805142634], [38.758970949301194, 8.945826572586936], [38.75785064462773, 8.939743866734013], [38.756303364076494, 8.933035708918043], [38.7546889211475, 8.928017344159347], [38.75047821124396, 8.92321481253845], [38.748420266794916, 8.917481814828218], [38.74660883103594, 8.91115435928075], [38.74442756768303, 8.903638703268063]]]}}, {"type": "Feature", "properties": {"id": "kebele_18", "name": "Gulale", "parent": "Fitche Woreda (Efratana Gidim)", "sourceName": "Alem Gena", "sourceID": "50319843B84401725160258", "sourceType": "geoBoundaries ETH ADM3", "matchDistance": 0.383106}, "geometry": {"type": "Polygon", "coordinates": [[[38.681798190256586, 8.950713813654625], [38.67706398057248, 8.958653300039376], [38.66624520681714, 8.962129466284656], [38.654196760730684, 8.963948045045182], [38.64365461644078, 8.966901207779802], [38.64024143946276, 8.975082907417317], [38.64934618001578, 8.97704252077513], [38.655481073360086, 8.977983432180483], [38.660222988485344, 8.986448513704426], [38.65862837435628, 8.995863644151203], [38.65188797305047, 9.003537807534205], [38.65277845045784, 9.011328291620767], [38.643773743338684, 9.015176151509744], [38.62033808235634, 9.007896901549092], [38.603687556504724, 8.99244834214728], [38.59167715414933, 8.975399898116644], [38.57064647204457, 8.948672362863906], [38.55354591896177, 8.928164249454412], [38.533915269377744, 8.9014267014459], [38.508264465941934, 8.876978980035584], [38.48862388208434, 8.864510162588479], [38.47311348756792, 8.869999750375559], [38.46037321595596, 8.886548341193299], [38.44280269551609, 8.877069257249891], [38.43378245369817, 8.877519257301321], [38.4246721210991, 8.85723609059078], [38.41705388146596, 8.849569801432864], [38.420891928130416, 8.83674291664639], [38.42506201565033, 8.830993406470512], [38.43317218632107, 8.819734370869503], [38.44245235538109, 8.80202589492869], [38.45427458074831, 8.780797715058645], [38.46193272426862, 8.767078896118422], [38.468192846926925, 8.756739785462015], [38.48116312177057, 8.73950125014123], [38.49895351360302, 8.718643015735552], [38.502703591569066, 8.71423339071557], [38.52099403322892, 8.702994307757699], [38.52677418937905, 8.702314342842064], [38.53925453396401, 8.704644080515795], [38.55819507317469, 8.711133423070148], [38.5820057264926, 8.714173050944373], [38.6097564363099, 8.705943657789717], [38.62827682728539, 8.68250565485935], [38.63916702711435, 8.661587458024076], [38.65490735416316, 8.639989300199256], [38.67757788821433, 8.623000707279287], [38.69837843950348, 8.621200775413794], [38.70563863860194, 8.621790688187662], [38.722817099463654, 8.621992597028711], [38.72771924658725, 8.626090209689654], [38.74849987406554, 8.641308772137121], [38.75148003793227, 8.66156696335251], [38.74892006395137, 8.682265141781626], [38.742199979925175, 8.703653282663137], [38.73755995113787, 8.724581449553476], [38.73662001154209, 8.744369695044908], [38.738230105843876, 8.756568613327627], [38.74052023927644, 8.771987235294882], [38.74559045957067, 8.79062556595721], [38.75459080903351, 8.813653485135367], [38.753205823594755, 8.82582741489386], [38.753190858142084, 8.833201756154459], [38.756421001409684, 8.846090604565894], [38.767521309010604, 8.847950390288833], [38.7623971968011, 8.854671957198624], [38.757303358310864, 8.854298056607622], [38.75495541882068, 8.859650284291199], [38.74635574386022, 8.864480254563214], [38.746038786893834, 8.870546496769744], [38.748132861831444, 8.878214367183858], [38.743997496851655, 8.881467526148533], [38.74531514606688, 8.893165363215648], [38.74442756768303, 8.903638703268063], [38.737354305487806, 8.902343826299425], [38.731910154893406, 8.90614388949664], [38.7280618098705, 8.911896448014684], [38.724175156033084, 8.915633668953207], [38.71997998003338, 8.920767245765276], [38.70926534515753, 8.921966605286359], [38.70280348362868, 8.926679513556165], [38.697665855853444, 8.93375834237103], [38.694681742054684, 8.942947448415582], [38.68873912492478, 8.940791864955612], [38.68147922505078, 8.942139809377881], [38.681798190256586, 8.950713813654625]]]}}, {"type": "Feature", "properties": {"id": "kebele_19", "name": "Sina", "parent": "Fitche Woreda (Efratana Gidim)", "sourceName": "Akaki", "sourceID": "50319843B10681742406064", "sourceType": "geoBoundaries ETH ADM3", "matchDistance": 0.418143}, "geometry": {"type": "Polygon", "coordinates": [[[38.856395976093495, 8.939342586865076], [38.861674578967865, 8.93322824712767], [38.86891115692036, 8.928669503284446], [38.87433328096113, 8.924805665567165], [38.880288305236114, 8.919365672780966], [38.87802474896424, 8.91357881200367], [38.87415039865871, 8.906147602690927], [38.87833274856181, 8.896840678298226], [38.874253046650374, 8.889346355836835], [38.87067222960756, 8.881829708463126], [38.86955796585573, 8.87409113995835], [38.86464976018118, 8.883905249853147], [38.85922863254905, 8.884692877636033], [38.8538226561884, 8.88283844738752], [38.847917829296684, 8.88107498371871], [38.84152821062248, 8.880906555448634], [38.833823841029464, 8.88396669317517], [38.82684137936187, 8.881242193381725], [38.82777595641037, 8.874721369922622], [38.83024972952245, 8.869838091514254], [38.82788633399777, 8.8643144248626], [38.827117305229216, 8.85867492223253], [38.824747524516035, 8.853815667457576], [38.82467192280501, 8.847506460414717], [38.82523283116807, 8.842390619214152], [38.81832964107249, 8.84035162973972], [38.81338678067379, 8.841073765080397], [38.806335762592084, 8.838303092436327], [38.79842314702039, 8.834544389375042], [38.79286393419575, 8.836835538689007], [38.78749252819246, 8.836339842555017], [38.781433723361374, 8.836978486428494], [38.779222041622546, 8.842867183079376], [38.77830410891654, 8.853482431873719], [38.77383049108097, 8.858524435925826], [38.7623971968011, 8.854671957198624], [38.767521309010604, 8.847950390288833], [38.756421001409684, 8.846090604565894], [38.753190858142084, 8.833201756154459], [38.753205823594755, 8.82582741489386], [38.75459080903351, 8.813653485135367], [38.74559045957067, 8.79062556595721], [38.74052023927644, 8.771987235294882], [38.738230105843876, 8.756568613327627], [38.73662001154209, 8.744369695044908], [38.73755995113787, 8.724581449553476], [38.742199979925175, 8.703653282663137], [38.74892006395137, 8.682265141781626], [38.75148003793227, 8.66156696335251], [38.74849987406554, 8.641308772137121], [38.72771924658725, 8.626090209689654], [38.722817099463654, 8.621992597028711], [38.71778892743102, 8.614111316641695], [38.72313894051409, 8.584203943953648], [38.729629051820474, 8.569955174695993], [38.747189496940905, 8.564925545793477], [38.76128982948032, 8.554596400228357], [38.76353181176235, 8.536511991402378], [38.77448009031703, 8.533448216253296], [38.78325035171317, 8.538757706441128], [38.804941026159334, 8.561115628096244], [38.81970153087382, 8.585523402572116], [38.834002043336234, 8.615910648680186], [38.840919391770946, 8.62854935993087], [38.84900256637127, 8.643318154118754], [38.86723318015278, 8.67186554257861], [38.88269370871961, 8.697643189569654], [38.889613996354555, 8.719971180443379], [38.89746431989182, 8.745508883270185], [38.903234558473734, 8.762767328398471], [38.91385493540273, 8.783715420771918], [38.93233549489932, 8.799143973539637], [38.95567619608032, 8.815722398425029], [38.959836373634694, 8.829751130864292], [38.96514666379238, 8.862188229994267], [38.972776932575876, 8.876686910150434], [38.981557233841855, 8.890485648854412], [38.98918746412157, 8.896475081982874], [39.000517795076554, 8.90246449707907], [39.01299815088363, 8.907523993580366], [39.02557850831319, 8.911566910690537], [39.017388295027196, 8.91304348550375], [39.00652805728798, 8.923392613922596], [39.00028796839302, 8.940861096221447], [38.98804770869312, 8.955349869638836], [38.9686272523435, 8.968448796465935], [38.95565193887345, 8.976498145932469], [38.937416477591064, 8.981077822509988], [38.9256862008441, 8.989087167317223], [38.919465991302786, 8.980262980346847], [38.9036265129207, 8.96345923185526], [38.8970764559519, 8.955885646522571], [38.90194069117593, 8.947190032161283], [38.89760087004666, 8.938076693058417], [38.892265051658434, 8.935382079384677], [38.88292230921139, 8.937246956419205], [38.870334488833116, 8.940669213902277], [38.8622592890054, 8.943726477872378], [38.856395976093495, 8.939342586865076]]]}}, {"type": "Feature", "properties": {"id": "kebele_20", "name": "Amba Giorgis", "parent": "Fitche Woreda (Efratana Gidim)", "sourceName": "Jida", "sourceID": "50319843B3684019586511", "sourceType": "geoBoundaries ETH ADM3", "matchDistance": 0.378008}, "geometry": {"type": "Polygon", "coordinates": [[[38.974352718337975, 9.473017962668402], [38.97868992899955, 9.46939438902133], [38.992790250586026, 9.457625358584668], [38.99831027348834, 9.432097588729224], [38.986239784510936, 9.39875060034871], [38.98575965171155, 9.375062699583156], [38.98596957460382, 9.357584245479265], [38.96326884665584, 9.332976535007822], [38.94543827000288, 9.31273841019784], [38.940568078845494, 9.301239451101676], [38.96230861820956, 9.291120245982482], [38.984069235055124, 9.297329590845333], [39.0014297622081, 9.311128288652554], [39.00526334363348, 9.314643025053712], [39.016480235033605, 9.324926989981925], [39.04310098575477, 9.332046236440371], [39.05330133927745, 9.348134760382777], [39.06765173546845, 9.350894447351164], [39.0674317752185, 9.36032361195184], [39.07207197432571, 9.374342351129354], [39.08297234154642, 9.389970913150902], [39.09340269532916, 9.404689558723293], [39.103613059420965, 9.422847893685175], [39.104563183853756, 9.442616141833083], [39.12378370612172, 9.44490584765333], [39.14276425511075, 9.452015124334146], [39.14024426156969, 9.467423770188455], [39.137264275901764, 9.486512091432406], [39.14137246828444, 9.50198270491507], [39.13199428050358, 9.515019596988088], [39.11303384272132, 9.52906844618531], [39.107283794588454, 9.55022660021778], [39.10996892435704, 9.561875551986216], [39.11310405716007, 9.571684668285663], [39.09952699134763, 9.565045325638295], [39.09524349950959, 9.556856069441807], [39.08839331093164, 9.555331241821282], [39.07936307070307, 9.555616258028303], [39.07594550254319, 9.560595837093496], [39.06305270354512, 9.569795088227766], [39.06008092687604, 9.578232605378608], [39.05499524334831, 9.582871738190263], [39.04535979578559, 9.585499335809393], [39.034848388378435, 9.586375238305376], [39.026964806705024, 9.581996027420105], [39.022585007702745, 9.573237550324967], [39.022584950587124, 9.561851501260993], [39.02521268597132, 9.538203540775118], [39.02871637971793, 9.516307276330412], [39.022584596688056, 9.490907659782293], [39.01032123925309, 9.48214922072754], [38.974352718337975, 9.473017962668402]]]}}, {"type": "Feature", "properties": {"id": "kebele_21", "name": "Debre Sina", "parent": "Fitche Woreda (Efratana Gidim)", "sourceName": "Wuchale", "sourceID": "50319843B47825587107210", "sourceType": "geoBoundaries ETH ADM3", "matchDistance": 0.394618}, "geometry": {"type": "Polygon", "coordinates": [[[38.99798718917612, 9.748988947288971], [38.99094998846163, 9.746949274829328], [38.98671405546523, 9.750022026161108], [38.98160390926707, 9.752959968148067], [38.97850637025942, 9.757253926020873], [38.97526564180204, 9.762082183349065], [38.96879252709632, 9.75714309739841], [38.96498446904411, 9.750031966237751], [38.95852518400908, 9.744721051013682], [38.95293284055543, 9.739641861502541], [38.95356324405313, 9.733662470465545], [38.95601527698185, 9.727211361952678], [38.95994467718803, 9.719499357002343], [38.96109764331381, 9.711738699681367], [38.95537046814287, 9.702113919074549], [38.93703988232021, 9.684415573559761], [38.93051958898312, 9.66165761455415], [38.92284927856172, 9.64118946843885], [38.89387843158181, 9.62763080556162], [38.86930770584355, 9.615911960325517], [38.835936735991496, 9.60280328638235], [38.79608562879779, 9.59636405096367], [38.76410868017702, 9.57878987730009], [38.76802470073407, 9.561397277004309], [38.75735431436899, 9.542988950007443], [38.74623394911752, 9.52964018850519], [38.74252380642316, 9.519751075166397], [38.734573420714845, 9.484964192909256], [38.745283681419835, 9.480404543822734], [38.76704419676523, 9.464995802387488], [38.78672466168645, 9.450966945195637], [38.816125442258496, 9.448677004114236], [38.85109643083977, 9.457646041918812], [38.88120729351838, 9.467535026815607], [38.90806802187971, 9.468684791829004], [38.93816884226205, 9.469834548677222], [38.974352718337975, 9.473017962668402], [39.01032123925309, 9.48214922072754], [39.022584596688056, 9.490907659782293], [39.02871637971793, 9.516307276330412], [39.02521268597132, 9.538203540775118], [39.022584950587124, 9.561851501260993], [39.022585007702745, 9.573237550324967], [39.026964806705024, 9.581996027420105], [39.034848388378435, 9.586375238305376], [39.04535979578559, 9.585499335809393], [39.05499524334831, 9.582871738190263], [39.06008092687604, 9.578232605378608], [39.068876274817775, 9.5863135935423], [39.07029053555854, 9.59742760566769], [39.0609665700078, 9.604213300988587], [39.05560768934494, 9.607005164062127], [39.04533242674153, 9.609311674612032], [39.04696249680355, 9.615741097466515], [39.05355438419348, 9.623509130625868], [39.06076543550065, 9.6283024190346], [39.059552946200235, 9.636479202373097], [39.067713195180474, 9.642493628607975], [39.07314335027718, 9.644453428087168], [39.07663349245296, 9.654637510788282], [39.07531350419994, 9.663256755686858], [39.075130215151525, 9.673139214122534], [39.07775793928897, 9.679375317386308], [39.06759094647363, 9.693111651134751], [39.0575431806799, 9.693764146661517], [39.046207054320206, 9.696230648980043], [39.034882594399875, 9.698573830677681], [39.02824843794607, 9.703087465720214], [39.016042147477215, 9.711152814755534], [39.012192097629104, 9.721301937207462], [39.01212213909271, 9.729986723039115], [39.00740202943074, 9.733508380675197], [39.00478200251371, 9.741410192170298], [38.99798718917612, 9.748988947288971]]]}}, {"type": "Feature", "properties": {"id": "kebele_22", "name": "Kochi", "parent": "Fitche Woreda (Efratana Gidim)", "sourceName": "Meta Robi", "sourceID": "50319843B86293036915819", "sourceType": "geoBoundaries ETH ADM3", "matchDistance": 0.423362}, "geometry": {"type": "Polygon", "coordinates": [[[38.1389879318388, 9.636641635224459], [38.13937789452758, 9.627554437224871], [38.13522768553189, 9.6065863004728], [38.135957573714556, 9.57849876961695], [38.13576737995164, 9.53957219912496], [38.12605699405907, 9.513754515060885], [38.12283682002337, 9.495096172147925], [38.11384653673351, 9.486636957536014], [38.11984666916161, 9.480347488025762], [38.120576574537516, 9.455709652891136], [38.12431655382813, 9.429691929881674], [38.132926690772564, 9.407833812372202], [38.143386863445116, 9.384135853658936], [38.144806811099265, 9.3629477114406], [38.13210634289257, 9.338049966300188], [38.12634608087024, 9.315002019998174], [38.142126456994724, 9.302603047111983], [38.16158698983917, 9.302872930005103], [38.17527731344691, 9.291623862408027], [38.18109735990879, 9.267455963453225], [38.201027881397486, 9.263126260388802], [38.21700833605277, 9.26615591603552], [38.23301869975567, 9.251677125384477], [38.24253887634841, 9.23327869859794], [38.25552916432824, 9.219489860212876], [38.271049606828385, 9.222519524511897], [38.289340122858334, 9.226929051614654], [38.30972064984054, 9.221439446094037], [38.31991094119602, 9.223999171394032], [38.33102127188555, 9.230228567389563], [38.34562164520263, 9.224968967557693], [38.362522112500834, 9.22775864856986], [38.370852393900755, 9.239057610391818], [38.35484207284857, 9.264115470278266], [38.336511736747724, 9.299082469566263], [38.32466155675456, 9.329679828908358], [38.315821469941255, 9.363056919926459], [38.31000147981199, 9.39873380405491], [38.30695157030409, 9.435790550067061], [38.30692172252125, 9.468947628673456], [38.30829191026988, 9.499574921712732], [38.307111996537586, 9.524672715233663], [38.30848214419073, 9.54839061449332], [38.33235288535354, 9.567528820775308], [38.351823460345905, 9.576767908758018], [38.372224053476145, 9.583927182121242], [38.38774451514414, 9.59223638054687], [38.40064494036745, 9.606995013568508], [38.38750458357337, 9.607425041013986], [38.36293397755186, 9.621443917921486], [38.35133373712925, 9.63616267551937], [38.33324330598304, 9.649721571667095], [38.3105027598877, 9.665120322280861], [38.277111881748496, 9.67244983609186], [38.251591214347094, 9.678169449825473], [38.242480964659144, 9.678769443067434], [38.21425020387062, 9.680649408822468], [38.18919949186108, 9.675080014705983], [38.1611586118263, 9.65316208057281], [38.1389879318388, 9.636641635224459]]]}}, {"type": "Feature", "properties": {"id": "kebele_23", "name": "Weyera", "parent": "Fitche Woreda (Efratana Gidim)", "sourceName": "Debre Libanos", "sourceID": "50319843B61449251519381", "sourceType": "geoBoundaries ETH ADM3", "matchDistance": 0.46467}, "geometry": {"type": "Polygon", "coordinates": [[[38.755930475420335, 9.65665726375025], [38.75723843937597, 9.637038607126916], [38.75428379220808, 9.619313310876622], [38.75576098055244, 9.60084943805098], [38.76410868017702, 9.57878987730009], [38.79608562879779, 9.59636405096367], [38.835936735991496, 9.60280328638235], [38.86930770584355, 9.615911960325517], [38.89387843158181, 9.62763080556162], [38.92284927856172, 9.64118946843885], [38.93051958898312, 9.66165761455415], [38.93703988232021, 9.684415573559761], [38.95537046814287, 9.702113919074549], [38.96109764331381, 9.711738699681367], [38.954661511134, 9.714786800504045], [38.950692019937314, 9.718079529252163], [38.94559146963846, 9.722138862275393], [38.941114202300135, 9.726144196925725], [38.935577441426844, 9.728923395368787], [38.929006540282906, 9.726071930886443], [38.923984703160116, 9.718980082290535], [38.91859725590923, 9.712507003825376], [38.91018595163272, 9.709713469872593], [38.90526349135007, 9.711320519409059], [38.89759261308901, 9.715274826997133], [38.892683524047584, 9.719221716156191], [38.886786879376615, 9.72210382448438], [38.880478397855555, 9.726621457309582], [38.87283564933526, 9.730558177932636], [38.87066161968447, 9.724195720266582], [38.85922792595823, 9.714593292707233], [38.85017764473387, 9.70677402557512], [38.83997733826796, 9.701024584058125], [38.82815699862398, 9.696205071310157], [38.801726224225014, 9.685166174629224], [38.78711578839321, 9.677116955804003], [38.76300505216875, 9.659868602994628], [38.755930475420335, 9.65665726375025]]]}}, {"type": "Feature", "properties": {"id": "kebele_24", "name": "Gobero", "parent": "Fitche Woreda (Efratana Gidim)", "sourceName": "Aleltu", "sourceID": "50319843B93317402455391", "sourceType": "geoBoundaries ETH ADM3", "matchDistance": 0.492151}, "geometry": {"type": "Polygon", "coordinates": [[[39.265266898692545, 9.325205757120157], [39.26773700461702, 9.332825072760858], [39.25294666390376, 9.343644182779531], [39.2337461493734, 9.342744356120079], [39.216155622873764, 9.33171542456445], [39.20895535585034, 9.317246738443753], [39.20176510537393, 9.304837874082889], [39.183964645099636, 9.308757616824968], [39.17566451637463, 9.327386003799386], [39.15092388719117, 9.33475547361609], [39.121773109505675, 9.3343156532], [39.09840248703902, 9.33616560347355], [39.08129206715135, 9.343755010274249], [39.06765173546845, 9.350894447351164], [39.05330133927745, 9.348134760382777], [39.04310098575477, 9.332046236440371], [39.016480235033605, 9.324926989981925], [39.00526334363348, 9.314643025053712], [39.04193542268462, 9.2677077126434], [39.07946912915419, 9.213758680497369], [39.095108137913044, 9.184047645221064], [39.10214568069456, 9.168410263509818], [39.11700278161666, 9.148863508118856], [39.13889749291085, 9.127752984781026], [39.15399078128684, 9.11197537840522], [39.1666132565056, 9.117944619360411], [39.18950387969835, 9.121614184276773], [39.2005941372817, 9.113104885300634], [39.2144544629618, 9.10344567745953], [39.23157497482837, 9.115624515906282], [39.245005411076775, 9.131933004089868], [39.25037207140707, 9.136617452280783], [39.24053548574961, 9.149486617462863], [39.23452638452797, 9.158954440503317], [39.21548658202731, 9.174407436604602], [39.20246206993783, 9.191350367794314], [39.1894374052139, 9.210285225338897], [39.2145318226417, 9.229145235088117], [39.200592153361676, 9.250990987362156], [39.19493569336818, 9.253434126073387], [39.178592306723196, 9.272093534606038], [39.208037405618406, 9.292958515088111], [39.23451209509076, 9.294629912635664], [39.25843560504275, 9.25713452089425], [39.26127479954826, 9.251345928167352], [39.267019316156244, 9.245508786742006], [39.28558152270366, 9.278556222198143], [39.26705635378703, 9.289469672881516], [39.265266898692545, 9.325205757120157]]]}}]}